{
  "type": "FeatureCollection",
  "features": [
    {
      "type": "Feature",
      "properties": {
        "norad_id": 36828,
        "name": "BEIDOU-2 IGSO-1 (C06)",
        "group": "beidou",
        "lat": -21.29400656437285,
        "lon": 0.8617134071251756,
        "alt_km": 35570.93794626262,
        "timestamp": "2025-12-21T11:31:43.120659+00:00",
        "meta_object_name": "BEIDOU-2 IGSO-1 (C06)",
        "meta_object_id": "2010-036A",
        "meta_epoch": "2025-12-20T21:47:26.739168",
        "meta_mean_motion": 1.00282395,
        "meta_eccentricity": 0.0051798,
        "meta_inclination": 54.2882,
        "meta_ra_of_asc_node": 164.5739,
        "meta_arg_of_pericenter": 215.2932,
        "meta_mean_anomaly": 144.6604,
        "meta_ephemeris_type": 0,
        "meta_classification_type": "U",
        "meta_norad_cat_id": 36828,
        "meta_element_set_no": 999,
        "meta_rev_at_epoch": 5631,
        "meta_bstar": 0,
        "meta_mean_motion_dot": -5.5e-07,
        "meta_mean_motion_ddot": 0,
        "tle_line1": "1 36828U 10036A   25354.90794837 -.00000055  00000+0  00000+0 0  9992",
        "tle_line2": "2 36828  54.2882 164.5739 0051798 215.2932 144.6604  1.00282395 56317"
      },
      "geometry": {
        "type": "Point",
        "coordinates": [
          0.8617134071251756,
          -21.29400656437285
        ]
      }
    },
    {
      "type": "Feature",
      "properties": {
        "norad_id": 37210,
        "name": "BEIDOU-2 G4 (C04)",
        "group": "beidou",
        "lat": -0.34456925135687566,
        "lon": 63.357499775619175,
        "alt_km": 35827.64839365175,
        "timestamp": "2025-12-21T11:31:43.120690+00:00",
        "meta_object_name": "BEIDOU-2 G4 (C04)",
        "meta_object_id": "2010-057A",
        "meta_epoch": "2025-12-21T03:41:18.797856",
        "meta_mean_motion": 1.00271974,
        "meta_eccentricity": 0.0010416,
        "meta_inclination": 3.2044,
        "meta_ra_of_asc_node": 69.9074,
        "meta_arg_of_pericenter": 193.0247,
        "meta_mean_anomaly": 42.4575,
        "meta_ephemeris_type": 0,
        "meta_classification_type": "U",
        "meta_norad_cat_id": 37210,
        "meta_element_set_no": 999,
        "meta_rev_at_epoch": 5550,
        "meta_bstar": 0,
        "meta_mean_motion_dot": -9.1e-07,
        "meta_mean_motion_ddot": 0,
        "tle_line1": "1 37210U 10057A   25355.15368979 -.00000091  00000+0  00000+0 0  9993",
        "tle_line2": "2 37210   3.2044  69.9074 0010416 193.0247  42.4575  1.00271974 55504"
      },
      "geometry": {
        "type": "Point",
        "coordinates": [
          63.357499775619175,
          -0.34456925135687566
        ]
      }
    },
    {
      "type": "Feature",
      "properties": {
        "norad_id": 37256,
        "name": "BEIDOU-2 IGSO-2 (C07)",
        "group": "beidou",
        "lat": 47.49495480132206,
        "lon": 13.845157550139694,
        "alt_km": 35877.580943295405,
        "timestamp": "2025-12-21T11:31:43.120707+00:00",
        "meta_object_name": "BEIDOU-2 IGSO-2 (C07)",
        "meta_object_id": "2010-068A",
        "meta_epoch": "2025-12-20T17:09:56.640960",
        "meta_mean_motion": 1.0028399,
        "meta_eccentricity": 0.00484742,
        "meta_inclination": 47.8714,
        "meta_ra_of_asc_node": 274.0512,
        "meta_arg_of_pericenter": 216.3556,
        "meta_mean_anomaly": 324.5527,
        "meta_ephemeris_type": 0,
        "meta_classification_type": "U",
        "meta_norad_cat_id": 37256,
        "meta_element_set_no": 999,
        "meta_rev_at_epoch": 5500,
        "meta_bstar": 0,
        "meta_mean_motion_dot": -1.89e-06,
        "meta_mean_motion_ddot": 0,
        "tle_line1": "1 37256U 10068A   25354.71523890 -.00000189  00000+0  00000+0 0  9999",
        "tle_line2": "2 37256  47.8714 274.0512 0048474 216.3556 324.5527  1.00283990 55002"
      },
      "geometry": {
        "type": "Point",
        "coordinates": [
          13.845157550139694,
          47.49495480132206
        ]
      }
    },
    {
      "type": "Feature",
      "properties": {
        "norad_id": 37384,
        "name": "BEIDOU-2 IGSO-3 (C08)",
        "group": "beidou",
        "lat": -27.186646056523305,
        "lon": 26.13229956197907,
        "alt_km": 35906.28100894424,
        "timestamp": "2025-12-21T11:31:43.120722+00:00",
        "meta_object_name": "BEIDOU-2 IGSO-3 (C08)",
        "meta_object_id": "2011-013A",
        "meta_epoch": "2025-12-20T17:53:25.122624",
        "meta_mean_motion": 1.00268991,
        "meta_eccentricity": 0.00353432,
        "meta_inclination": 62.1536,
        "meta_ra_of_asc_node": 41.8403,
        "meta_arg_of_pericenter": 187.7861,
        "meta_mean_anomaly": 235.669,
        "meta_ephemeris_type": 0,
        "meta_classification_type": "U",
        "meta_norad_cat_id": 37384,
        "meta_element_set_no": 999,
        "meta_rev_at_epoch": 5387,
        "meta_bstar": 0,
        "meta_mean_motion_dot": -1.63e-06,
        "meta_mean_motion_ddot": 0,
        "tle_line1": "1 37384U 11013A   25354.74542966 -.00000163  00000+0  00000+0 0  9992",
        "tle_line2": "2 37384  62.1536  41.8403 0035343 187.7861 235.6690  1.00268991 53876"
      },
      "geometry": {
        "type": "Point",
        "coordinates": [
          26.13229956197907,
          -27.186646056523305
        ]
      }
    },
    {
      "type": "Feature",
      "properties": {
        "norad_id": 37763,
        "name": "BEIDOU-2 IGSO-4 (C09)",
        "group": "beidou",
        "lat": -7.7682696619198195,
        "lon": -7.164244538362608,
        "alt_km": 35304.532023276435,
        "timestamp": "2025-12-21T11:31:43.120736+00:00",
        "meta_object_name": "BEIDOU-2 IGSO-4 (C09)",
        "meta_object_id": "2011-038A",
        "meta_epoch": "2025-12-17T23:29:21.564384",
        "meta_mean_motion": 1.00281312,
        "meta_eccentricity": 0.01493143,
        "meta_inclination": 54.5836,
        "meta_ra_of_asc_node": 167.2999,
        "meta_arg_of_pericenter": 230.2426,
        "meta_mean_anomaly": 136.1954,
        "meta_ephemeris_type": 0,
        "meta_classification_type": "U",
        "meta_norad_cat_id": 37763,
        "meta_element_set_no": 999,
        "meta_rev_at_epoch": 5283,
        "meta_bstar": 0,
        "meta_mean_motion_dot": 6.5e-07,
        "meta_mean_motion_ddot": 0,
        "tle_line1": "1 37763U 11038A   25351.97872181  .00000065  00000+0  00000+0 0  9997",
        "tle_line2": "2 37763  54.5836 167.2999 0149314 230.2426 136.1954  1.00281312 52838"
      },
      "geometry": {
        "type": "Point",
        "coordinates": [
          -7.164244538362608,
          -7.7682696619198195
        ]
      }
    },
    {
      "type": "Feature",
      "properties": {
        "norad_id": 37948,
        "name": "BEIDOU-2 IGSO-5 (C10)",
        "group": "beidou",
        "lat": 47.44680962677463,
        "lon": -7.993671053589349,
        "alt_km": 36128.38199893443,
        "timestamp": "2025-12-21T11:31:43.120750+00:00",
        "meta_object_name": "BEIDOU-2 IGSO-5 (C10)",
        "meta_object_id": "2011-073A",
        "meta_epoch": "2025-12-20T17:45:23.966208",
        "meta_mean_motion": 1.00289634,
        "meta_eccentricity": 0.01098505,
        "meta_inclination": 48.0053,
        "meta_ra_of_asc_node": 273.7608,
        "meta_arg_of_pericenter": 222.3057,
        "meta_mean_anomaly": 313.2909,
        "meta_ephemeris_type": 0,
        "meta_classification_type": "U",
        "meta_norad_cat_id": 37948,
        "meta_element_set_no": 999,
        "meta_rev_at_epoch": 5134,
        "meta_bstar": 0,
        "meta_mean_motion_dot": -1.51e-06,
        "meta_mean_motion_ddot": 0,
        "tle_line1": "1 37948U 11073A   25354.73986072 -.00000151  00000+0  00000+0 0  9990",
        "tle_line2": "2 37948  48.0053 273.7608 0109850 222.3057 313.2909  1.00289634 51343"
      },
      "geometry": {
        "type": "Point",
        "coordinates": [
          -7.993671053589349,
          47.44680962677463
        ]
      }
    },
    {
      "type": "Feature",
      "properties": {
        "norad_id": 38091,
        "name": "BEIDOU-2 G5 (C05)",
        "group": "beidou",
        "lat": -2.9843845563504217,
        "lon": -37.98689696414424,
        "alt_km": 35735.78236905488,
        "timestamp": "2025-12-21T11:31:43.120764+00:00",
        "meta_object_name": "BEIDOU-2 G5 (C05)",
        "meta_object_id": "2012-008A",
        "meta_epoch": "2025-12-19T16:03:31.750272",
        "meta_mean_motion": 1.00268606,
        "meta_eccentricity": 0.0012969,
        "meta_inclination": 3.1258,
        "meta_ra_of_asc_node": 70.6861,
        "meta_arg_of_pericenter": 231.3522,
        "meta_mean_anomaly": 86.1393,
        "meta_ephemeris_type": 0,
        "meta_classification_type": "U",
        "meta_norad_cat_id": 38091,
        "meta_element_set_no": 999,
        "meta_rev_at_epoch": 5056,
        "meta_bstar": 0,
        "meta_mean_motion_dot": 7.9e-07,
        "meta_mean_motion_ddot": 0,
        "tle_line1": "1 38091U 12008A   25353.66911748  .00000079  00000+0  00000+0 0  9996",
        "tle_line2": "2 38091   3.1258  70.6861 0012969 231.3522  86.1393  1.00268606 50560"
      },
      "geometry": {
        "type": "Point",
        "coordinates": [
          -37.98689696414424,
          -2.9843845563504217
        ]
      }
    }
  ]
}